EPOCH,NORAD_CAT_ID,MEAN_MOTION,ECCENTRICITY,INCLINATION,RA_OF_ASC_NODE,ARG_OF_PERICENTER,MEAN_ANOMALY,MEAN_MOTION_DOT,BSTAR,TLE_LINE1,TLE_LINE2
2023-09-02 05:49:28.774560,50803,15.08839382,0.00019450,53.2176,336.6759,82.8343,277.2870,0.00001351,0.00010299000000,1 50803U 22001A   23245.24269415  .00001351  00000-0  10299-3 0  9994,2 50803  53.2176 336.6759 0001945  82.8343 277.2870 15.08839382 92874
2023-09-02 12:11:01.282272,50803,15.08838943,0.00016260,53.2178,335.4882,82.3997,277.7180,0.00001297,0.00009954500000,1 50803U 22001A   23245.50765373  .00001297  00000-0  99545-4 0  9998,2 50803  53.2178 335.4882 0001626  82.3997 277.7180 15.08838943 91641
2023-09-02 13:46:24.686976,50803,15.08828211,0.00014960,53.2174,335.1920,69.1980,290.9172,0.00003796,0.00025656000000,1 50803U 22001A   23245.57389684  .00003796  00000-0  25656-3 0  9999,2 50803  53.2174 335.1920 0001496  69.1980 290.9172 15.08828211 91653
2023-09-02 13:46:24.686976,50803,15.08828211,0.00014960,53.2174,335.1920,69.1980,290.9172,0.00003796,0.00025656000000,1 50803U 22001A   23245.57389684  .00003796  00000-0  25656-3 0  9999,2 50803  53.2174 335.1920 0001496  69.1980 290.9172 15.08828211 92924
2023-09-02 23:18:42.600960,50803,15.08852914,0.00015150,53.2174,333.4080,82.3401,277.7764,0.00000745,0.00006488900000,1 50803U 22001A   23245.97132640  .00000745  00000-0  64889-4 0  9994,2 50803  53.2174 333.4080 0001515  82.3401 277.7764 15.08852914 92982
2023-09-03 12:01:47.178336,50803,15.08854710,0.00013790,53.2171,331.0289,87.3707,272.7443,0.00000980,0.00007960100000,1 50803U 22001A   23246.50124049  .00000980  00000-0  79601-4 0  9997,2 50803  53.2171 331.0289 0001379  87.3707 272.7443 15.08854710 91799
2023-09-03 23:09:29.871648,50803,15.08841762,0.00013610,53.2171,328.9473,73.1378,286.9763,-0.00000136,0.00000951720000,1 50803U 22001A   23246.96492907 -.00000136  00000-0  95172-5 0  9994,2 50803  53.2171 328.9473 0001361  73.1378 286.9763 15.08841762 93132
2023-09-04 08:41:50.311104,50803,15.08821196,0.00014970,53.2171,327.1632,75.4641,284.6517,-0.00001810,-0.00009571400000,1 50803U 22001A   23247.36238786 -.00001810  00000-0 -95714-4 0  9994,2 50803  53.2171 327.1632 0001497  75.4641 284.6517 15.08821196 93195
2023-09-04 11:52:36.620256,50803,15.08821143,0.00013340,53.2173,326.5684,75.9806,284.1334,-0.00001764,-0.00009283500000,1 50803U 22001A   23247.49486829 -.00001764  00000-0 -92835-4 0  9990,2 50803  53.2173 326.5684 0001334  75.9806 284.1334 15.08821143 91940
2023-09-04 15:03:22.672800,50803,15.08827383,0.00014650,53.2177,325.9720,84.4119,275.7040,-0.00001888,-0.00010057000000,1 50803U 22001A   23247.62734575 -.00001888  00000-0 -10057-3 0  9991,2 50803  53.2177 325.9720 0001465  84.4119 275.7040 15.08827383 93231
2023-09-04 23:00:17.984736,50803,15.08834095,0.00013560,53.2179,324.4860,78.9854,281.1291,-0.00001076,-0.00004955800000,1 50803U 22001A   23247.95854149 -.00001076  00000-0 -49558-4 0  9995,2 50803  53.2179 324.4860 0001356  78.9854 281.1291 15.08834095 93287
2023-09-05 08:32:36.411072,50803,15.08840454,0.00013780,53.2178,322.7014,78.8461,281.2686,0.00000279,0.00003560600000,1 50803U 22001A   23248.35597698  .00000279  00000-0  35606-4 0  9994,2 50803  53.2178 322.7014 0001378  78.8461 281.2686 15.08840454 92076
2023-09-05 08:32:36.411072,50803,15.08840454,0.00013780,53.2178,322.7014,78.8461,281.2686,0.00000279,0.00003560600000,1 50803U 22001A   23248.35597698  .00000279  00000-0  35606-4 0  9994,2 50803  53.2178 322.7014 0001378  78.8461 281.2686 15.08840454 93347
2023-09-06 08:23:23.360352,50803,15.08837212,0.00014490,53.2178,318.2411,71.4226,288.6923,0.00004612,0.00030768000000,1 50803U 22001A   23249.34957593  .00004612  00000-0  30768-3 0  9996,2 50803  53.2178 318.2411 0001449  71.4226 288.6923 15.08837212 92224
2023-09-06 21:06:28.493280,50803,15.08842500,0.00014640,53.2177,315.8629,65.9130,294.2015,0.00003255,0.00022250000000,1 50803U 22001A   23249.87949645  .00003255  00000-0  22250-3 0  9992,2 50803  53.2177 315.8629 0001464  65.9130 294.2015 15.08842500 92306
2023-09-06 21:06:28.493280,50803,15.08842500,0.00014640,53.2177,315.8629,65.9130,294.2015,0.00003255,0.00022250000000,1 50803U 22001A   23249.87949645  .00003255  00000-0  22250-3 0  9992,2 50803  53.2177 315.8629 0001464  65.9130 294.2015 15.08842500 93576
2023-09-07 08:14:11.166720,50803,15.08835887,0.00014460,53.2172,313.7815,73.9743,286.1408,0.00000079,0.00002303800000,1 50803U 22001A   23250.34318480  .00000079  00000-0  23038-4 0  9990,2 50803  53.2172 313.7815 0001446  73.9743 286.1408 15.08835887 93648
2023-09-07 09:49:34.257792,50803,15.08836130,0.00014680,53.2172,313.4842,72.7784,287.3368,0.00000047,0.00002107900000,1 50803U 22001A   23250.40942428  .00000047  00000-0  21079-4 0  9990,2 50803  53.2172 313.4842 0001468  72.7784 287.3368 15.08836130 92381
2023-09-07 16:11:05.834112,50803,15.08848600,0.00014470,53.2180,312.2916,92.9043,267.2115,0.00000989,0.00008019400000,1 50803U 22001A   23250.67437308  .00000989  00000-0  80194-4 0  9993,2 50803  53.2180 312.2916 0001447  92.9043 267.2115 15.08848600 92425
2023-09-07 16:11:05.834112,50803,15.08848600,0.00014470,53.2180,312.2916,92.9043,267.2115,0.00000989,0.00008019400000,1 50803U 22001A   23250.67437308  .00000989  00000-0  80194-4 0  9993,2 50803  53.2180 312.2916 0001447  92.9043 267.2115 15.08848600 93695
2023-09-08 12:51:06.316128,50803,15.08851516,0.00019220,53.2195,308.4257,69.1971,290.9227,0.00001128,0.00008892400000,1 50803U 22001A   23251.53548977  .00001128  00000-0  88924-4 0  9999,2 50803  53.2195 308.4257 0001922  69.1971 290.9227 15.08851516 92551
2023-09-08 20:48:02.875680,50803,15.08831676,0.00011910,53.2184,306.9428,85.2188,274.8941,0.00000628,0.00005757000000,1 50803U 22001A   23251.86669995  .00000628  00000-0  57570-4 0  9996,2 50803  53.2184 306.9428 0001191  85.2188 274.8941 15.08831676 92604
2023-09-08 23:58:49.738656,50803,15.08827747,0.00015590,53.2175,306.3460,102.2253,257.8914,-0.00000205,0.00000520590000,1 50803U 22001A   23251.99918679 -.00000205  00000-0  52059-5 0  9996,2 50803  53.2175 306.3460 0001559 102.2253 257.8914 15.08827747 93892
2023-09-09 09:31:08.060448,50803,15.08835600,0.00014880,53.2174,304.5602,100.7831,259.3329,-0.00000035,0.00001587900000,1 50803U 22001A   23252.39662107 -.00000035  00000-0  15879-4 0  9992,2 50803  53.2174 304.5602 0001488 100.7831 259.3329 15.08835600 93956
2023-09-09 11:06:31.129920,50803,15.08837374,0.00014900,53.2174,304.2629,99.7697,260.3463,0.00000297,0.00003677200000,1 50803U 22001A   23252.46286030  .00000297  00000-0  36772-4 0  9991,2 50803  53.2174 304.2629 0001490  99.7697 260.3463 15.08837374 92693
2023-09-10 10:57:18.023904,50803,15.08841539,0.00014320,53.2163,299.8052,85.0621,275.0535,0.00002566,0.00017922000000,1 50803U 22001A   23253.45645861  .00002566  00000-0  17922-3 0  9998,2 50803  53.2163 299.8052 0001432  85.0621 275.0535 15.08841539 94111
2023-09-10 12:32:41.130528,50803,15.08843811,0.00014280,53.2162,299.5076,85.4430,274.6725,0.00003597,0.00024392000000,1 50803U 22001A   23253.52269827  .00003597  00000-0  24392-3 0  9994,2 50803  53.2162 299.5076 0001428  85.4430 274.6725 15.08843811 92850
2023-09-10 23:40:23.558592,50803,15.08836924,0.00015390,53.2157,297.4269,84.6775,275.4393,0.00003666,0.00024831000000,1 50803U 22001A   23253.98638378  .00003666  00000-0  24831-3 0  9990,2 50803  53.2157 297.4269 0001539  84.6775 275.4393 15.08836924 94197
2023-09-11 09:12:42.381504,50803,15.08841312,0.00015510,53.2158,295.6426,85.0753,275.0416,0.00004333,0.00029015000000,1 50803U 22001A   23254.38382386  .00004333  00000-0  29015-3 0  9991,2 50803  53.2158 295.6426 0001551  85.0753 275.0416 15.08841312 92982
2023-09-12 09:03:29.286720,50803,15.08845139,0.00014730,53.2156,291.1810,90.8378,269.2783,0.00003477,0.00023641000000,1 50803U 22001A   23255.37742230  .00003477  00000-0  23641-3 0  9996,2 50803  53.2156 291.1810 0001473  90.8378 269.2783 15.08845139 94400
2023-09-12 12:14:15.398016,50803,15.08847902,0.00014530,53.2160,290.5858,92.9731,267.1428,0.00003059,0.00021015000000,1 50803U 22001A   23255.50990044  .00003059  00000-0  21015-3 0  9998,2 50803  53.2160 290.5858 0001453  92.9731 267.1428 15.08847902 93158
2023-09-13 10:29:39.024672,50803,15.08850209,0.00014580,53.2159,286.4220,94.2252,265.8907,0.00003113,0.00021352000000,1 50803U 22001A   23256.43725723  .00003113  00000-0  21352-3 0  9996,2 50803  53.2159 286.4220 0001458  94.2252 265.8907 15.08850209 93297
2023-09-13 10:29:39.024672,50803,15.08850209,0.00014580,53.2159,286.4220,94.2252,265.8907,0.00003113,0.00021352000000,1 50803U 22001A   23256.43725723  .00003113  00000-0  21352-3 0  9996,2 50803  53.2159 286.4220 0001458  94.2252 265.8907 15.08850209 94568
2023-09-14 02:23:31.221888,50803,15.08832947,0.00015780,53.2169,283.4469,104.9258,255.1909,-0.00001387,-0.00006910100000,1 50803U 22001A   23257.09966692 -.00001387  00000-0 -69101-4 0  9999,2 50803  53.2169 283.4469 0001578 104.9258 255.1909 15.08832947 94663
2023-09-14 08:45:03.900672,50803,15.08832119,0.00015440,53.2168,282.2580,100.9031,259.2135,-0.00001195,-0.00005700700000,1 50803U 22001A   23257.36462848 -.00001195  00000-0 -57007-4 0  9992,2 50803  53.2168 282.2580 0001544 100.9031 259.2135 15.08832119 93432
2023-09-14 18:17:22.662240,50803,15.08837185,0.00014940,53.2168,280.4758,86.3200,273.7963,-0.00000141,0.00000923670000,1 50803U 22001A   23257.76206785 -.00000141  00000-0  92367-5 0  9990,2 50803  53.2168 280.4758 0001494  86.3200 273.7963 15.08837185 93492
2023-09-15 07:00:27.446976,50803,15.08846348,0.00013980,53.2159,278.0963,87.7705,272.3447,0.00001920,0.00013864000000,1 50803U 22001A   23258.29198434  .00001920  00000-0  13864-3 0  9998,2 50803  53.2159 278.0963 0001398  87.7705 272.3447 15.08846348 94844
2023-09-15 10:11:13.628256,50803,15.08847612,0.00014050,53.2160,277.5016,85.6491,274.4661,0.00002016,0.00014466000000,1 50803U 22001A   23258.42446329  .00002016  00000-0  14466-3 0  9998,2 50803  53.2160 277.5016 0001405  85.6491 274.4661 15.08847612 93594
